{"fetched_at":"2026-07-18T17:29:44.300Z","source":"https://celestrak.org/NORAD/elements/gp.php?NAME=BRO&FORMAT=JSON","constellation":"unseenlabs","records":[{"OBJECT_NAME":"BRO-1","OBJECT_ID":"2019-054A","EPOCH":"2026-07-17T22:31:48.444960","CLASSIFICATION_TYPE":"U","MEAN_MOTION":16.31817634,"ECCENTRICITY":0.00110976,"INCLINATION":44.9745,"RA_OF_ASC_NODE":101.56,"ARG_OF_PERICENTER":239.3083,"MEAN_ANOMALY":120.6746,"EPHEMERIS_TYPE":0,"NORAD_CAT_ID":44495,"ELEMENT_SET_NO":999,"REV_AT_EPOCH":38467,"BSTAR":0.00075106629,"MEAN_MOTION_DOT":0.04365344,"MEAN_MOTION_DDOT":0.000010290682},{"OBJECT_NAME":"BRO-5","OBJECT_ID":"2022-002CF","EPOCH":"2026-07-18T05:02:25.276992","CLASSIFICATION_TYPE":"U","MEAN_MOTION":15.48992557,"ECCENTRICITY":0.00056993,"INCLINATION":97.2977,"RA_OF_ASC_NODE":273.1886,"ARG_OF_PERICENTER":192.2391,"MEAN_ANOMALY":167.8723,"EPHEMERIS_TYPE":0,"NORAD_CAT_ID":51061,"ELEMENT_SET_NO":999,"REV_AT_EPOCH":25105,"BSTAR":0.00033233143,"MEAN_MOTION_DOT":0.00017911,"MEAN_MOTION_DDOT":0},{"OBJECT_NAME":"BRO-6","OBJECT_ID":"2022-047AE","EPOCH":"2026-07-18T06:52:03.554400","CLASSIFICATION_TYPE":"U","MEAN_MOTION":15.52730204,"ECCENTRICITY":0.00028195,"INCLINATION":97.3384,"RA_OF_ASC_NODE":290.9874,"ARG_OF_PERICENTER":292.1699,"MEAN_ANOMALY":67.9255,"EPHEMERIS_TYPE":0,"NORAD_CAT_ID":52422,"ELEMENT_SET_NO":999,"REV_AT_EPOCH":23597,"BSTAR":0.00043495455,"MEAN_MOTION_DOT":0.00026815,"MEAN_MOTION_DDOT":0},{"OBJECT_NAME":"BRO-8","OBJECT_ID":"2023-001C","EPOCH":"2026-07-18T07:03:41.135904","CLASSIFICATION_TYPE":"U","MEAN_MOTION":15.50876361,"ECCENTRICITY":0.00045271,"INCLINATION":97.3177,"RA_OF_ASC_NODE":264.9651,"ARG_OF_PERICENTER":28.6618,"MEAN_ANOMALY":331.4882,"EPHEMERIS_TYPE":0,"NORAD_CAT_ID":55011,"ELEMENT_SET_NO":999,"REV_AT_EPOCH":19702,"BSTAR":0.00034148731,"MEAN_MOTION_DOT":0.00019671,"MEAN_MOTION_DDOT":0},{"OBJECT_NAME":"BRO-11","OBJECT_ID":"2023-174J","EPOCH":"2026-07-18T07:09:41.607072","CLASSIFICATION_TYPE":"U","MEAN_MOTION":15.27606789,"ECCENTRICITY":0.00120039,"INCLINATION":97.3893,"RA_OF_ASC_NODE":275.8603,"ARG_OF_PERICENTER":98.2617,"MEAN_ANOMALY":261.9984,"EPHEMERIS_TYPE":0,"NORAD_CAT_ID":58264,"ELEMENT_SET_NO":999,"REV_AT_EPOCH":14950,"BSTAR":0.000090006163,"MEAN_MOTION_DOT":0.00002359,"MEAN_MOTION_DDOT":0},{"OBJECT_NAME":"BRO-13","OBJECT_ID":"2024-043K","EPOCH":"2026-07-18T07:33:55.302624","CLASSIFICATION_TYPE":"U","MEAN_MOTION":14.96657797,"ECCENTRICITY":0.00073908,"INCLINATION":97.8533,"RA_OF_ASC_NODE":330.4393,"ARG_OF_PERICENTER":249.857,"MEAN_ANOMALY":110.1856,"EPHEMERIS_TYPE":0,"NORAD_CAT_ID":59107,"ELEMENT_SET_NO":999,"REV_AT_EPOCH":12927,"BSTAR":0.00010482471,"MEAN_MOTION_DOT":0.00001136,"MEAN_MOTION_DDOT":0},{"OBJECT_NAME":"BRO-12","OBJECT_ID":"2024-043L","EPOCH":"2026-07-18T07:21:01.461888","CLASSIFICATION_TYPE":"U","MEAN_MOTION":14.96897931,"ECCENTRICITY":0.00070045,"INCLINATION":97.8515,"RA_OF_ASC_NODE":330.5999,"ARG_OF_PERICENTER":242.9542,"MEAN_ANOMALY":117.0964,"EPHEMERIS_TYPE":0,"NORAD_CAT_ID":59108,"ELEMENT_SET_NO":999,"REV_AT_EPOCH":12929,"BSTAR":0.000078075892,"MEAN_MOTION_DOT":0.00000836,"MEAN_MOTION_DDOT":0},{"OBJECT_NAME":"BRO-14","OBJECT_ID":"2024-149CM","EPOCH":"2026-07-18T03:49:29.523072","CLASSIFICATION_TYPE":"U","MEAN_MOTION":14.96241713,"ECCENTRICITY":0.00064884,"INCLINATION":97.6864,"RA_OF_ASC_NODE":274.3801,"ARG_OF_PERICENTER":9.4662,"MEAN_ANOMALY":350.668,"EPHEMERIS_TYPE":0,"NORAD_CAT_ID":60551,"ELEMENT_SET_NO":999,"REV_AT_EPOCH":10462,"BSTAR":0.000095345816,"MEAN_MOTION_DOT":0.00001019,"MEAN_MOTION_DDOT":0},{"OBJECT_NAME":"BRO-15","OBJECT_ID":"2024-149CP","EPOCH":"2026-07-18T03:24:36.322848","CLASSIFICATION_TYPE":"U","MEAN_MOTION":14.96223786,"ECCENTRICITY":0.0007417,"INCLINATION":97.6789,"RA_OF_ASC_NODE":273.9359,"ARG_OF_PERICENTER":354.884,"MEAN_ANOMALY":5.2304,"EPHEMERIS_TYPE":0,"NORAD_CAT_ID":60553,"ELEMENT_SET_NO":999,"REV_AT_EPOCH":10463,"BSTAR":0.000046478898,"MEAN_MOTION_DOT":0.00000467,"MEAN_MOTION_DDOT":0},{"OBJECT_NAME":"BRO-16","OBJECT_ID":"2025-009AX","EPOCH":"2026-07-18T04:48:15.223680","CLASSIFICATION_TYPE":"U","MEAN_MOTION":15.24140329,"ECCENTRICITY":0.00024056,"INCLINATION":97.405,"RA_OF_ASC_NODE":279.3054,"ARG_OF_PERICENTER":147.9268,"MEAN_ANOMALY":212.2116,"EPHEMERIS_TYPE":0,"NORAD_CAT_ID":62654,"ELEMENT_SET_NO":999,"REV_AT_EPOCH":8352,"BSTAR":0.000079403351,"MEAN_MOTION_DOT":0.0000186,"MEAN_MOTION_DDOT":0},{"OBJECT_NAME":"BRO-18","OBJECT_ID":"2025-135Y","EPOCH":"2026-07-18T06:44:58.593408","CLASSIFICATION_TYPE":"U","MEAN_MOTION":15.22186483,"ECCENTRICITY":0.00025883,"INCLINATION":97.4657,"RA_OF_ASC_NODE":314.0766,"ARG_OF_PERICENTER":111.9333,"MEAN_ANOMALY":248.2179,"EPHEMERIS_TYPE":0,"NORAD_CAT_ID":64550,"ELEMENT_SET_NO":999,"REV_AT_EPOCH":5960,"BSTAR":0.00009710829,"MEAN_MOTION_DOT":0.00002159,"MEAN_MOTION_DDOT":0},{"OBJECT_NAME":"BRO-17","OBJECT_ID":"2025-276G","EPOCH":"2026-07-18T03:53:27.130848","CLASSIFICATION_TYPE":"U","MEAN_MOTION":15.18168941,"ECCENTRICITY":0.00051797,"INCLINATION":97.4178,"RA_OF_ASC_NODE":271.6724,"ARG_OF_PERICENTER":245.7483,"MEAN_ANOMALY":114.321,"EPHEMERIS_TYPE":0,"NORAD_CAT_ID":66672,"ELEMENT_SET_NO":999,"REV_AT_EPOCH":3509,"BSTAR":0.000091128834,"MEAN_MOTION_DOT":0.00001795,"MEAN_MOTION_DDOT":0},{"OBJECT_NAME":"BRO-20","OBJECT_ID":"2025-276J","EPOCH":"2026-07-18T03:18:26.781408","CLASSIFICATION_TYPE":"U","MEAN_MOTION":15.18335324,"ECCENTRICITY":0.00048383,"INCLINATION":97.416,"RA_OF_ASC_NODE":271.6364,"ARG_OF_PERICENTER":249.3252,"MEAN_ANOMALY":110.7463,"EPHEMERIS_TYPE":0,"NORAD_CAT_ID":66674,"ELEMENT_SET_NO":999,"REV_AT_EPOCH":3509,"BSTAR":0.000078585769,"MEAN_MOTION_DOT":0.00001546,"MEAN_MOTION_DDOT":0},{"OBJECT_NAME":"BRO-19","OBJECT_ID":"2026-067G","EPOCH":"2026-07-17T21:08:00.590496","CLASSIFICATION_TYPE":"U","MEAN_MOTION":15.18999315,"ECCENTRICITY":0.00024844,"INCLINATION":97.4494,"RA_OF_ASC_NODE":156.9024,"ARG_OF_PERICENTER":103.631,"MEAN_ANOMALY":256.5201,"EPHEMERIS_TYPE":0,"NORAD_CAT_ID":68422,"ELEMENT_SET_NO":999,"REV_AT_EPOCH":1660,"BSTAR":0.000098487194,"MEAN_MOTION_DOT":0.00001993,"MEAN_MOTION_DDOT":0},{"OBJECT_NAME":"BRO-21","OBJECT_ID":"2026-100AD","EPOCH":"2026-07-17T15:21:32.029920","CLASSIFICATION_TYPE":"U","MEAN_MOTION":15.2164385,"ECCENTRICITY":0.00063103,"INCLINATION":97.4001,"RA_OF_ASC_NODE":96.0344,"ARG_OF_PERICENTER":319.4163,"MEAN_ANOMALY":40.6602,"EPHEMERIS_TYPE":0,"NORAD_CAT_ID":69007,"ELEMENT_SET_NO":999,"REV_AT_EPOCH":1143,"BSTAR":0.00015010671,"MEAN_MOTION_DOT":0.00003323,"MEAN_MOTION_DDOT":0},{"OBJECT_NAME":"BRO-22","OBJECT_ID":"2026-132C","EPOCH":"2026-07-18T02:38:11.280192","CLASSIFICATION_TYPE":"U","MEAN_MOTION":14.99815899,"ECCENTRICITY":0.0016881,"INCLINATION":97.6825,"RA_OF_ASC_NODE":262.3927,"ARG_OF_PERICENTER":170.1966,"MEAN_ANOMALY":189.959,"EPHEMERIS_TYPE":0,"NORAD_CAT_ID":69504,"ELEMENT_SET_NO":999,"REV_AT_EPOCH":541,"BSTAR":0.00012125542,"MEAN_MOTION_DOT":0.00001445,"MEAN_MOTION_DDOT":0}]}
