BRO-1                   
1 44495U 19054A   26198.93875515  .04365344  10291-4  75107-3 0  9993
2 44495  44.9745 101.5600 0011097 239.3083 120.6746 16.31817634384674
BRO-5                   
1 51061U 22002CF  26199.21001478  .00017911  00000+0  33233-3 0  9994
2 51061  97.2977 273.1886 0005699 192.2391 167.8723 15.48992557251059
BRO-6                   
1 52422U 22047AE  26199.28615225  .00026815  00000+0  43495-3 0  9997
2 52422  97.3384 290.9874 0002819 292.1699  67.9255 15.52730204235977
BRO-8                   
1 55011U 23001C   26199.29422611  .00019671  00000+0  34149-3 0  9999
2 55011  97.3177 264.9651 0004527  28.6618 331.4882 15.50876361197020
BRO-11                  
1 58264U 23174J   26199.29839823  .00002359  00000+0  90006-4 0  9990
2 58264  97.3893 275.8603 0012003  98.2617 261.9984 15.27606789149505
BRO-13                  
1 59107U 24043K   26199.31522341  .00001136  00000+0  10482-3 0  9991
2 59107  97.8533 330.4393 0007390 249.8570 110.1856 14.96657797129272
BRO-12                  
1 59108U 24043L   26199.30626692  .00000836  00000+0  78076-4 0  9995
2 59108  97.8515 330.5999 0007004 242.9542 117.0964 14.96897931129295
BRO-14                  
1 60551U 24149CM  26199.15936948  .00001019  00000+0  95346-4 0  9990
2 60551  97.6864 274.3801 0006488   9.4662 350.6680 14.96241713104626
BRO-15                  
1 60553U 24149CP  26199.14208707  .00000467  00000+0  46479-4 0  9995
2 60553  97.6789 273.9359 0007417 354.8840   5.2304 14.96223786104632
BRO-16                  
1 62654U 25009AX  26199.20017620  .00001860  00000+0  79403-4 0  9995
2 62654  97.4050 279.3054 0002405 147.9268 212.2116 15.24140329 83522
BRO-18                  
1 64550U 25135Y   26199.28123372  .00002159  00000+0  97108-4 0  9996
2 64550  97.4657 314.0766 0002588 111.9333 248.2179 15.22186483 59604
BRO-17                  
1 66672U 25276G   26199.16211957  .00001795  00000+0  91129-4 0  9995
2 66672  97.4178 271.6724 0005179 245.7483 114.3210 15.18168941 35092
BRO-20                  
1 66674U 25276J   26199.13780997  .00001546  00000+0  78586-4 0  9995
2 66674  97.4160 271.6364 0004838 249.3252 110.7463 15.18335324 35091
BRO-19                  
1 68422U 26067G   26198.88056239  .00001993  00000+0  98487-4 0  9991
2 68422  97.4494 156.9024 0002484 103.6310 256.5201 15.18999315 16605
BRO-21                  
1 69007U 26100AD  26198.63995405  .00003323  00000+0  15011-3 0  9999
2 69007  97.4001  96.0344 0006310 319.4163  40.6602 15.21643850 11430
BRO-22                  
1 69504U 26132C   26199.10985278  .00001445  00000+0  12126-3 0  9993
2 69504  97.6825 262.3927 0016881 170.1966 189.9590 14.99815899  5412
